{
  "type": "FeatureCollection",
  "features": [
    {
      "type": "Feature",
      "properties": {
        "norad_id": 39111,
        "name": "COSMOS 2251 DEB",
        "group": "cosmos-2251-debris",
        "lat": 40.42030473877439,
        "lon": 71.90128512068553,
        "alt_km": 518.6618131357309,
        "timestamp": "2025-12-04T17:48:40.563191+00:00",
        "meta_object_name": "COSMOS 2251 DEB",
        "meta_object_id": "1993-036BUA",
        "meta_epoch": "2025-11-17T15:40:41.824704",
        "meta_mean_motion": 15.09497671,
        "meta_eccentricity": 0.00084083,
        "meta_inclination": 74.0067,
        "meta_ra_of_asc_node": 93.139,
        "meta_arg_of_pericenter": 94.0367,
        "meta_mean_anomaly": 266.1786,
        "meta_ephemeris_type": 0,
        "meta_classification_type": "U",
        "meta_norad_cat_id": 39111,
        "meta_element_set_no": 999,
        "meta_rev_at_epoch": 8766,
        "meta_bstar": 0.0056310804,
        "meta_mean_motion_dot": 0.00091468,
        "meta_mean_motion_ddot": 0,
        "tle_line1": "1 39111U 93036BUA 25321.65326186  .00091468  00000+0  56311-2 0  9991",
        "tle_line2": "2 39111  74.0067  93.1390 0008408  94.0367 266.1786 15.09497671 87667"
      },
      "geometry": {
        "type": "Point",
        "coordinates": [
          71.90128512068553,
          40.42030473877439
        ]
      }
    },
    {
      "type": "Feature",
      "properties": {
        "norad_id": 39546,
        "name": "COSMOS 2251 DEB",
        "group": "cosmos-2251-debris",
        "lat": 39.690367064012165,
        "lon": 166.6626808328911,
        "alt_km": 588.1548839506013,
        "timestamp": "2025-12-04T17:48:40.563201+00:00",
        "meta_object_name": "COSMOS 2251 DEB",
        "meta_object_id": "1993-036BUC",
        "meta_epoch": "2025-12-01T05:55:26.467104",
        "meta_mean_motion": 14.91578832,
        "meta_eccentricity": 0.0043624,
        "meta_inclination": 73.9966,
        "meta_ra_of_asc_node": 159.9082,
        "meta_arg_of_pericenter": 321.5487,
        "meta_mean_anomaly": 38.2588,
        "meta_ephemeris_type": 0,
        "meta_classification_type": "U",
        "meta_norad_cat_id": 39546,
        "meta_element_set_no": 999,
        "meta_rev_at_epoch": 64265,
        "meta_bstar": 0.0014755,
        "meta_mean_motion_dot": 0.00015069,
        "meta_mean_motion_ddot": 0,
        "tle_line1": "1 39546U 93036BUC 25335.24683411  .00015069  00000+0  14755-2 0  9999",
        "tle_line2": "2 39546  73.9966 159.9082 0043624 321.5487  38.2588 14.91578832642657"
      },
      "geometry": {
        "type": "Point",
        "coordinates": [
          166.6626808328911,
          39.690367064012165
        ]
      }
    },
    {
      "type": "Feature",
      "properties": {
        "norad_id": 39547,
        "name": "COSMOS 2251 DEB",
        "group": "cosmos-2251-debris",
        "lat": 68.01525203839944,
        "lon": 80.02835514899273,
        "alt_km": 550.3993378328705,
        "timestamp": "2025-12-04T17:48:40.563211+00:00",
        "meta_object_name": "COSMOS 2251 DEB",
        "meta_object_id": "1993-036BUD",
        "meta_epoch": "2025-12-03T13:00:45.154656",
        "meta_mean_motion": 15.02302786,
        "meta_eccentricity": 0.00042429,
        "meta_inclination": 74.0034,
        "meta_ra_of_asc_node": 37.1966,
        "meta_arg_of_pericenter": 32.7334,
        "meta_mean_anomaly": 34.8564,
        "meta_ephemeris_type": 0,
        "meta_classification_type": "U",
        "meta_norad_cat_id": 39547,
        "meta_element_set_no": 999,
        "meta_rev_at_epoch": 63887,
        "meta_bstar": 0.0034470262,
        "meta_mean_motion_dot": 0.00045816,
        "meta_mean_motion_ddot": 0,
        "tle_line1": "1 39547U 93036BUD 25337.54218929  .00045816  00000+0  34470-2 0  9992",
        "tle_line2": "2 39547  74.0034  37.1966 0004242  32.7334  34.8564 15.02302786638870"
      },
      "geometry": {
        "type": "Point",
        "coordinates": [
          80.02835514899273,
          68.01525203839944
        ]
      }
    },
    {
      "type": "Feature",
      "properties": {
        "norad_id": 39553,
        "name": "COSMOS 2251 DEB",
        "group": "cosmos-2251-debris",
        "lat": -33.73387900855733,
        "lon": -27.156310527856537,
        "alt_km": 1034.5240489284242,
        "timestamp": "2025-12-04T17:48:40.563221+00:00",
        "meta_object_name": "COSMOS 2251 DEB",
        "meta_object_id": "1993-036BUK",
        "meta_epoch": "2025-12-01T17:56:57.014304",
        "meta_mean_motion": 13.99866529,
        "meta_eccentricity": 0.02013394,
        "meta_inclination": 74.0297,
        "meta_ra_of_asc_node": 349.0518,
        "meta_arg_of_pericenter": 127.8246,
        "meta_mean_anomaly": 234.1304,
        "meta_ephemeris_type": 0,
        "meta_classification_type": "U",
        "meta_norad_cat_id": 39553,
        "meta_element_set_no": 999,
        "meta_rev_at_epoch": 75463,
        "meta_bstar": 0.00053939206,
        "meta_mean_motion_dot": 9.2e-06,
        "meta_mean_motion_ddot": 0,
        "tle_line1": "1 39553U 93036BUK 25335.74788211  .00000920  00000+0  53939-3 0  9994",
        "tle_line2": "2 39553  74.0297 349.0518 0201339 127.8246 234.1304 13.99866529754634"
      },
      "geometry": {
        "type": "Point",
        "coordinates": [
          -27.156310527856537,
          -33.73387900855733
        ]
      }
    },
    {
      "type": "Feature",
      "properties": {
        "norad_id": 39554,
        "name": "COSMOS 2251 DEB",
        "group": "cosmos-2251-debris",
        "lat": 62.58741627527865,
        "lon": -45.317786613060484,
        "alt_km": 531.1553206280896,
        "timestamp": "2025-12-04T17:48:40.563231+00:00",
        "meta_object_name": "COSMOS 2251 DEB",
        "meta_object_id": "1993-036BUL",
        "meta_epoch": "2025-11-30T15:36:56.637792",
        "meta_mean_motion": 15.08660873,
        "meta_eccentricity": 0.0002133,
        "meta_inclination": 74.0183,
        "meta_ra_of_asc_node": 289.5718,
        "meta_arg_of_pericenter": 61.0833,
        "meta_mean_anomaly": 111.3721,
        "meta_ephemeris_type": 0,
        "meta_classification_type": "U",
        "meta_norad_cat_id": 39554,
        "meta_element_set_no": 999,
        "meta_rev_at_epoch": 64202,
        "meta_bstar": 0.0031443,
        "meta_mean_motion_dot": 0.00049575,
        "meta_mean_motion_ddot": 0,
        "tle_line1": "1 39554U 93036BUL 25334.65065553  .00049575  00000+0  31443-2 0  9995",
        "tle_line2": "2 39554  74.0183 289.5718 0002133  61.0833 111.3721 15.08660873642025"
      },
      "geometry": {
        "type": "Point",
        "coordinates": [
          -45.317786613060484,
          62.58741627527865
        ]
      }
    },
    {
      "type": "Feature",
      "properties": {
        "norad_id": 39583,
        "name": "COSMOS 2251 DEB",
        "group": "cosmos-2251-debris",
        "lat": 72.38650892765139,
        "lon": 17.40931756774581,
        "alt_km": 666.9901229065144,
        "timestamp": "2025-12-04T17:48:40.563241+00:00",
        "meta_object_name": "COSMOS 2251 DEB",
        "meta_object_id": "1993-036BUN",
        "meta_epoch": "2025-12-03T11:46:41.592288",
        "meta_mean_motion": 14.60101482,
        "meta_eccentricity": 0.01362926,
        "meta_inclination": 73.9344,
        "meta_ra_of_asc_node": 265.002,
        "meta_arg_of_pericenter": 20.2137,
        "meta_mean_anomaly": 340.435,
        "meta_ephemeris_type": 0,
        "meta_classification_type": "U",
        "meta_norad_cat_id": 39583,
        "meta_element_set_no": 999,
        "meta_rev_at_epoch": 61644,
        "meta_bstar": 0.0029015409,
        "meta_mean_motion_dot": 0.00015908,
        "meta_mean_motion_ddot": 0,
        "tle_line1": "1 39583U 93036BUN 25337.49075917  .00015908  00000+0  29015-2 0  9992",
        "tle_line2": "2 39583  73.9344 265.0020 0136292  20.2137 340.4350 14.60101482616440"
      },
      "geometry": {
        "type": "Point",
        "coordinates": [
          17.40931756774581,
          72.38650892765139
        ]
      }
    },
    {
      "type": "Feature",
      "properties": {
        "norad_id": 39585,
        "name": "COSMOS 2251 DEB",
        "group": "cosmos-2251-debris",
        "lat": -30.679564318077496,
        "lon": -53.23012096267983,
        "alt_km": 720.3041062806888,
        "timestamp": "2025-12-04T17:48:40.563252+00:00",
        "meta_object_name": "COSMOS 2251 DEB",
        "meta_object_id": "1993-036BUQ",
        "meta_epoch": "2025-11-29T06:16:21.203328",
        "meta_mean_motion": 14.58611374,
        "meta_eccentricity": 0.00652828,
        "meta_inclination": 74.0406,
        "meta_ra_of_asc_node": 326.9733,
        "meta_arg_of_pericenter": 91.8532,
        "meta_mean_anomaly": 269.0111,
        "meta_ephemeris_type": 0,
        "meta_classification_type": "U",
        "meta_norad_cat_id": 39585,
        "meta_element_set_no": 999,
        "meta_rev_at_epoch": 62324,
        "meta_bstar": 0.00023928135,
        "meta_mean_motion_dot": 1.117e-05,
        "meta_mean_motion_ddot": 0,
        "tle_line1": "1 39585U 93036BUQ 25333.26135652  .00001117  00000+0  23928-3 0  9993",
        "tle_line2": "2 39585  74.0406 326.9733 0065282  91.8532 269.0111 14.58611374623244"
      },
      "geometry": {
        "type": "Point",
        "coordinates": [
          -53.23012096267983,
          -30.679564318077496
        ]
      }
    }
  ]
}